ZHUHAI-1 02 (CAS-4B)    
1 42759U 17034B   23163.38358302  .00007569  00000+0  38333-3 0  9998
2 42759  43.0139 142.3905 0009514  67.9357 292.2501 15.17344944330907
ZHUHAI-1 01 (CAS-4A)    
1 42761U 17034D   23163.39971231  .00008788  00000+0  44295-3 0  9992
2 42761  43.0132 140.8308 0010276  70.3309 289.8647 15.17349366330912
MAX VALIER SAT          
1 42778U 17036P   23162.70398775  .00025215  00000+0  66119-3 0  9995
2 42778  97.1557 197.6779 0010463 118.4937 241.7364 15.38596681331889
RADFXSAT (FOX-1B)       
1 43017U 17073E   23162.93454696  .00008211  00000+0  56996-3 0  9992
2 43017  97.6317  47.4798 0235273  86.6772 276.1327 14.86009806300404
FOX-1D (AO-92)          
1 43137U 18004AC  23162.43777704  .00036494  00000+0  75583-3 0  9990
2 43137  97.3280 241.5685 0006756 153.9849 206.1741 15.45652478301421
DIWATA-2B               
1 43678U 18084H   23163.36462687  .00001643  00000+0  16202-3 0  9993
2 43678  98.0224 307.2368 0009757 169.7121 190.4300 14.93414261251548
ES'HAIL 2               
1 43700U 18090A   23162.93521679  .00000142  00000+0  00000+0 0  9993
2 43700   0.0232  75.7122 0001747  41.0591 145.7093  1.00273261 16633
FOX-1CLIFF (AO-95)      
1 43770U 18099N   23163.42186815  .00004840  00000+0  39530-3 0  9996
2 43770  97.5709 225.0901 0012980 150.6224 209.5732 14.99788785246892
ITASAT 1                
1 43786U 18099AE  23162.62223852  .00004091  00000+0  33762-3 0  9996
2 43786  97.5750 225.3454 0013641 140.4385 219.7836 14.99466801246813
JY1SAT (JO-97)          
1 43803U 18099AX  23162.44827007  .00006428  00000+0  50981-3 0  9996
2 43803  97.5697 225.1625 0014684 110.6523 249.6278 15.00777983246835
UWE-4                   
1 43880U 18111E   23163.16119425  .00006298  00000+0  48186-3 0  9993
2 43880  97.6319  68.4180 0017901 187.7666 172.3284 15.02125170241611
NEXUS (FO-99)           
1 43937U 19003F   23163.39582655  .00052946  00000+0  86298-3 0  9998
2 43937  97.0857 190.6642 0009136 288.7946  71.2316 15.52411181245308
JAISAT-1                
1 44419U 19038F   23162.66765549  .00024171  00000+0  83026-3 0  9991
2 44419  97.6730 144.2059 0012768 329.4387  30.6107 15.30042231217694
DUCHIFAT-3              
1 44854U 19089C   23163.23494503  .00007643  00000+0  51632-3 0  9996
2 44854  36.9611 120.8817 0010505 273.9754  85.9789 15.06163294192081
CAS-6 (TIANQIN 1)       
1 44881U 19093C   23163.43723181  .00001084  00000+0  14126-3 0  9990
2 44881  97.8617 241.9691 0016203  93.7567 266.5499 14.82527608188096
RS-44 & BREEZE-KM R/B   
1 44909U 19096E   23162.82790955  .00000042  00000+0  12516-3 0  9993
2 44909  82.5216 351.5076 0217075 199.2418 160.0393 12.79721126161474
BY70-2                  
1 45857U 20042B   23163.44334852  .00018386  00000+0  18936-2 0  9999
2 45857  97.9256 243.3254 0008254  33.6373 326.5367 14.90287690158839
SALSAT                  
1 46495U 20068K   23162.81144663  .00005218  00000+0  34528-3 0  9991
2 46495  97.7690 110.7571 0016692 134.3451 225.9148 15.07681826148261
RADFXSAT-2 (AO-109)     
1 47311U 21002C   23163.17540197  .00025296  00000+0  65955-3 0  9996
2 47311  60.6811  77.8040 0012933 175.8022 184.3184 15.38718665133522
UVSQ-SAT                
1 47438U 21006AB  23162.71392351  .00016049  00000+0  65900-3 0  9992
2 47438  97.3845 219.8998 0011456 103.0024 257.2493 15.24230005131815
DIY-1 (ARDUIQUBE)       
1 47963U 21022AH  23162.48538997  .00263517  00000+0  31845-2 0  9999
2 47963  97.4955  70.7977 0001815  97.2143 262.9319 15.59833261121704
XW-3 (CAS-9)            
1 50466U 21131B   23163.44126627  .00000611  00000+0  21253-3 0  9999
2 50466  98.5519 245.0008 0005073 142.6393 217.5148 14.38916615 76670
TEVEL-3                 
1 50988U 22002E   23163.38921840  .00019006  00000+0  76503-3 0  9995
2 50988  97.4335 230.3874 0006705 241.0894 118.9671 15.24904096 78037
TEVEL-8                 
1 50989U 22002F   23163.40775851  .00019347  00000+0  78020-3 0  9992
2 50989  97.4350 230.4645 0006782 240.0900 119.9665 15.24837725 78032
TEVEL-5                 
1 50998U 22002Q   23163.40201537  .00019844  00000+0  77916-3 0  9992
2 50998  97.4329 230.7777 0008017 236.1439 123.9037 15.25719374 78064
TEVEL-6                 
1 50999U 22002R   23163.40053920  .00019905  00000+0  78154-3 0  9997
2 50999  97.4327 230.7712 0008030 235.9594 124.0882 15.25719442 78062
TEVEL-1                 
1 51013U 22002AF  23163.39887587  .00019038  00000+0  76739-3 0  9991
2 51013  97.4329 230.3406 0006645 240.5349 119.5227 15.24857607 78032
TEVEL-7                 
1 51062U 22002CG  23163.27756744  .00019081  00000+0  76926-3 0  9998
2 51062  97.4346 230.3086 0006769 240.0986 119.9580 15.24850384 78017
TEVEL-4                 
1 51063U 22002CH  23163.41472869  .00018505  00000+0  74724-3 0  9992
2 51063  97.4346 230.4288 0006753 239.6340 120.4230 15.24803332 78036
TEVEL-2                 
1 51069U 22002CP  23163.39105504  .00018817  00000+0  75746-3 0  9995
2 51069  97.4331 230.3609 0006717 240.5428 119.5140 15.24905931 78037
GREENCUBE               
1 53106U 22080B   23156.84588440 -.00000003  00000+0  00000+0 0  9997
2 53106  70.1624 323.6621 0008403 187.6285 172.4247  6.42557080 21021
RS29S (SXC3-2110 CYCLO*)
1 53373U 22096D   23163.39115892  .00028254  00000+0  73980-3 0  9993
2 53373  97.4141  69.6317 0002992 113.0678 247.0883 15.38673305 46956
RS32S (SXC3-212 MONITO*)
1 53374U 22096E   23163.42271127  .00027834  00000+0  74862-3 0  9995
2 53374  97.4120  69.5498 0003505 117.1300 243.0302 15.37846827 46953
RS34S (SXC3-218 KUZBAS*)
1 53375U 22096F   23163.37265018  .00022922  00000+0  65644-3 0  9993
2 53375  97.4147  69.2028 0003324 114.2262 245.9329 15.35931081 46925
RS23S (SXC3-21 UTMN)    
1 53376U 22096G   23163.39679368  .00023571  00000+0  66368-3 0  9998
2 53376  97.4142  69.3164 0003101 112.5119 247.6454 15.36455546 46935
RS28S (SXC3-214 MIET-A*)
1 53377U 22096H   23163.38112330  .00021469  00000+0  62314-3 0  9990
2 53377  97.4153  69.1988 0003282 114.0492 246.1095 15.35522585 46922
RS26S (KAI-1)           
1 53378U 22096J   23163.41551583  .00018257  00000+0  55473-3 0  9991
2 53378  97.4167  69.0154 0003134 110.4561 249.7018 15.34111410 46918
RS19S (SXC3-219 ISOI)   
1 53381U 22096M   23163.39656474  .00021648  00000+0  61212-3 0  9993
2 53381  97.4142  69.4648 0005556  87.0563 273.1317 15.36331172 46945
RS21S (CUBESX-HSE-2)    
1 53383U 22096P   23163.37072748  .00022991  00000+0  64091-3 0  9999
2 53383  97.4146  69.5104 0006035  86.9534 273.2401 15.36760687 46940
RS30S (SXC3-217 SIREN)  
1 53384U 22096Q   23163.39772033  .00019809  00000+0  57954-3 0  9990
2 53384  97.4157  69.3347 0005928  83.0793 277.1125 15.35276912 46932
RS20S (GEOSCAN-EDELVEIS)
1 53385U 22096R   23163.36248606  .00031360  00000+0  77936-3 0  9990
2 53385  97.4134  70.1098 0006244  85.7290 274.4669 15.40236017 47015
RS33S (SXC3-215 VIZARD) 
1 53386U 22096S   23163.41829715  .00039755  00000+0  87585-3 0  9990
2 53386  97.4129  70.7940 0006831  85.1240 275.0788 15.43809274 47050
CAS-5A (FO-118)         
1 54684U 22167C   23163.38362355  .00010655  00000+0  59035-3 0  9996
2 54684  97.5617 300.9946 0013013 356.9869   3.1281 15.13916557 27950
